{
  "type": "FeatureCollection",
  "features": [
    {
      "type": "Feature",
      "properties": {
        "norad_id": 28054,
        "name": "DMSP 5D-3 F16 (USA 172)",
        "group": "weather",
        "lat": 9.226836027730778,
        "lon": 17.570836757396933,
        "alt_km": 846.3306633380816,
        "timestamp": "2025-12-27T11:23:19.520253+00:00",
        "meta_object_name": "DMSP 5D-3 F16 (USA 172)",
        "meta_object_id": "2003-048A",
        "meta_epoch": "2025-12-27T03:15:53.754912",
        "meta_mean_motion": 14.14429299,
        "meta_eccentricity": 0.0006245,
        "meta_inclination": 99.0037,
        "meta_ra_of_asc_node": 18.7056,
        "meta_arg_of_pericenter": 274.5593,
        "meta_mean_anomaly": 172.1978,
        "meta_ephemeris_type": 0,
        "meta_classification_type": "U",
        "meta_norad_cat_id": 28054,
        "meta_element_set_no": 999,
        "meta_rev_at_epoch": 14516,
        "meta_bstar": 9.8056e-05,
        "meta_mean_motion_dot": 1.42e-06,
        "meta_mean_motion_ddot": 0,
        "tle_line1": "1 28054U 03048A   25361.13603883  .00000142  00000+0  98056-4 0  9991",
        "tle_line2": "2 28054  99.0037  18.7056 0006245 274.5593 172.1978 14.14429299145165"
      },
      "geometry": {
        "type": "Point",
        "coordinates": [
          17.570836757396933,
          9.226836027730778
        ]
      }
    },
    {
      "type": "Feature",
      "properties": {
        "norad_id": 28912,
        "name": "METEOSAT-9 (MSG-2)",
        "group": "weather",
        "lat": -8.693995619647017,
        "lon": -48.711889196896585,
        "alt_km": 35516.62173944337,
        "timestamp": "2025-12-27T11:23:19.520301+00:00",
        "meta_object_name": "METEOSAT-9 (MSG-2)",
        "meta_object_id": "2005-049B",
        "meta_epoch": "2025-12-24T18:27:10.310976",
        "meta_mean_motion": 1.00268275,
        "meta_eccentricity": 0.00719695,
        "meta_inclination": 8.9553,
        "meta_ra_of_asc_node": 55.846,
        "meta_arg_of_pericenter": 282.2974,
        "meta_mean_anomaly": 77.0088,
        "meta_ephemeris_type": 0,
        "meta_classification_type": "U",
        "meta_norad_cat_id": 28912,
        "meta_element_set_no": 999,
        "meta_rev_at_epoch": 524,
        "meta_bstar": 0,
        "meta_mean_motion_dot": 1.45e-06,
        "meta_mean_motion_ddot": 0,
        "tle_line1": "1 28912U 05049B   25358.76886934  .00000145  00000+0  00000+0 0  9992",
        "tle_line2": "2 28912   8.9553  55.8460 0071969 282.2974  77.0088  1.00268275  5240"
      },
      "geometry": {
        "type": "Point",
        "coordinates": [
          -48.711889196896585,
          -8.693995619647017
        ]
      }
    },
    {
      "type": "Feature",
      "properties": {
        "norad_id": 29522,
        "name": "DMSP 5D-3 F17 (USA 191)",
        "group": "weather",
        "lat": -24.057818143837242,
        "lon": 10.494497452276786,
        "alt_km": 854.5620745853066,
        "timestamp": "2025-12-27T11:23:19.520318+00:00",
        "meta_object_name": "DMSP 5D-3 F17 (USA 191)",
        "meta_object_id": "2006-050A",
        "meta_epoch": "2025-12-27T03:01:05.049696",
        "meta_mean_motion": 14.14925865,
        "meta_eccentricity": 0.0010044,
        "meta_inclination": 98.7393,
        "meta_ra_of_asc_node": 6.2153,
        "meta_arg_of_pericenter": 182.2221,
        "meta_mean_anomaly": 177.8909,
        "meta_ephemeris_type": 0,
        "meta_classification_type": "U",
        "meta_norad_cat_id": 29522,
        "meta_element_set_no": 999,
        "meta_rev_at_epoch": 98808,
        "meta_bstar": 0.00012993,
        "meta_mean_motion_dot": 2.08e-06,
        "meta_mean_motion_ddot": 0,
        "tle_line1": "1 29522U 06050A   25361.12575289  .00000208  00000+0  12993-3 0  9993",
        "tle_line2": "2 29522  98.7393   6.2153 0010044 182.2221 177.8909 14.14925865988084"
      },
      "geometry": {
        "type": "Point",
        "coordinates": [
          10.494497452276786,
          -24.057818143837242
        ]
      }
    },
    {
      "type": "Feature",
      "properties": {
        "norad_id": 32958,
        "name": "FENGYUN 3A",
        "group": "weather",
        "lat": -65.49721612070627,
        "lon": -39.74597024831408,
        "alt_km": 829.4416868500048,
        "timestamp": "2025-12-27T11:23:19.520332+00:00",
        "meta_object_name": "FENGYUN 3A",
        "meta_object_id": "2008-026A",
        "meta_epoch": "2025-12-26T20:28:43.261536",
        "meta_mean_motion": 14.19518996,
        "meta_eccentricity": 0.00076137,
        "meta_inclination": 98.6714,
        "meta_ra_of_asc_node": 300.084,
        "meta_arg_of_pericenter": 264.5136,
        "meta_mean_anomaly": 95.5172,
        "meta_ephemeris_type": 0,
        "meta_classification_type": "U",
        "meta_norad_cat_id": 32958,
        "meta_element_set_no": 999,
        "meta_rev_at_epoch": 91095,
        "meta_bstar": 8.1606007e-05,
        "meta_mean_motion_dot": 1.29e-06,
        "meta_mean_motion_ddot": 0,
        "tle_line1": "1 32958U 08026A   25360.85327849  .00000129  00000+0  81606-4 0  9991",
        "tle_line2": "2 32958  98.6714 300.0840 0007613 264.5136  95.5172 14.19518996910959"
      },
      "geometry": {
        "type": "Point",
        "coordinates": [
          -39.74597024831408,
          -65.49721612070627
        ]
      }
    },
    {
      "type": "Feature",
      "properties": {
        "norad_id": 35491,
        "name": "GOES 14",
        "group": "weather",
        "lat": 1.114737126284946,
        "lon": 147.98184969728607,
        "alt_km": 35837.18444089819,
        "timestamp": "2025-12-27T11:23:19.520358+00:00",
        "meta_object_name": "GOES 14",
        "meta_object_id": "2009-033A",
        "meta_epoch": "2025-12-26T22:44:26.774304",
        "meta_mean_motion": 1.00097083,
        "meta_eccentricity": 7.86e-05,
        "meta_inclination": 1.2388,
        "meta_ra_of_asc_node": 85.255,
        "meta_arg_of_pericenter": 194.6495,
        "meta_mean_anomaly": 38.1879,
        "meta_ephemeris_type": 0,
        "meta_classification_type": "U",
        "meta_norad_cat_id": 35491,
        "meta_element_set_no": 999,
        "meta_rev_at_epoch": 486,
        "meta_bstar": 0,
        "meta_mean_motion_dot": 4.4e-07,
        "meta_mean_motion_ddot": 0,
        "tle_line1": "1 35491U 09033A   25360.94753211  .00000044  00000+0  00000+0 0  9991",
        "tle_line2": "2 35491   1.2388  85.2550 0000786 194.6495  38.1879  1.00097083  4862"
      },
      "geometry": {
        "type": "Point",
        "coordinates": [
          147.98184969728607,
          1.114737126284946
        ]
      }
    },
    {
      "type": "Feature",
      "properties": {
        "norad_id": 35951,
        "name": "DMSP 5D-3 F18 (USA 210)",
        "group": "weather",
        "lat": -15.3491467363507,
        "lon": 155.34191106346861,
        "alt_km": 856.0351039283796,
        "timestamp": "2025-12-27T11:23:19.520375+00:00",
        "meta_object_name": "DMSP 5D-3 F18 (USA 210)",
        "meta_object_id": "2009-057A",
        "meta_epoch": "2025-12-27T03:40:44.306112",
        "meta_mean_motion": 14.14778941,
        "meta_eccentricity": 0.0011615,
        "meta_inclination": 98.8852,
        "meta_ra_of_asc_node": 337.4832,
        "meta_arg_of_pericenter": 24.555,
        "meta_mean_anomaly": 335.6174,
        "meta_ephemeris_type": 0,
        "meta_classification_type": "U",
        "meta_norad_cat_id": 35951,
        "meta_element_set_no": 999,
        "meta_rev_at_epoch": 83526,
        "meta_bstar": 0.00019438,
        "meta_mean_motion_dot": 3.3e-06,
        "meta_mean_motion_ddot": 0,
        "tle_line1": "1 35951U 09057A   25361.15329058  .00000330  00000+0  19438-3 0  9997",
        "tle_line2": "2 35951  98.8852 337.4832 0011615  24.5550 335.6174 14.14778941835269"
      },
      "geometry": {
        "type": "Point",
        "coordinates": [
          155.34191106346861,
          -15.3491467363507
        ]
      }
    },
    {
      "type": "Feature",
      "properties": {
        "norad_id": 36411,
        "name": "EWS-G2 (GOES 15)",
        "group": "weather",
        "lat": -0.7634615066726637,
        "lon": -31.569799437461317,
        "alt_km": 35775.0321142279,
        "timestamp": "2025-12-27T11:23:19.520389+00:00",
        "meta_object_name": "EWS-G2 (GOES 15)",
        "meta_object_id": "2010-008A",
        "meta_epoch": "2025-12-27T03:01:20.548128",
        "meta_mean_motion": 1.00270994,
        "meta_eccentricity": 0.0005679,
        "meta_inclination": 0.8473,
        "meta_ra_of_asc_node": 86.0597,
        "meta_arg_of_pericenter": 180.4501,
        "meta_mean_anomaly": 296.0333,
        "meta_ephemeris_type": 0,
        "meta_classification_type": "U",
        "meta_norad_cat_id": 36411,
        "meta_element_set_no": 999,
        "meta_rev_at_epoch": 5791,
        "meta_bstar": 0,
        "meta_mean_motion_dot": 6e-07,
        "meta_mean_motion_ddot": 0,
        "tle_line1": "1 36411U 10008A   25361.12593227  .00000060  00000+0  00000+0 0  9996",
        "tle_line2": "2 36411   0.8473  86.0597 0005679 180.4501 296.0333  1.00270994 57910"
      },
      "geometry": {
        "type": "Point",
        "coordinates": [
          -31.569799437461317,
          -0.7634615066726637
        ]
      }
    }
  ]
}